KUIPER-00096            
1 65135U 25171D   26201.23849328  .00001668  00000+0  24768-3 0  9996
2 65135  51.8999 291.9420 0000253 115.5347 244.5642 14.79935002 52527
KUIPER-00097            
1 65136U 25171E   26201.30334308  .00001586  00000+0  23695-3 0  9999
2 65136  51.9025 294.3124 0000308 108.8132 251.2864 14.79937467 52488
KUIPER-00098            
1 65137U 25171F   26201.23308920  .00001618  00000+0  24113-3 0  9995
2 65137  51.9017 296.9880 0000349 107.9015 252.1986 14.79942937 51798
KUIPER-00099            
1 65138U 25171G   26200.93997551  .00000377  00000+0  78495-4 0  9990
2 65138  51.9032 288.2898 0000787  98.6441 261.4610 14.79919158 52544
KUIPER-00100            
1 65139U 25171H   26200.97645534  .00001257  00000+0  19377-3 0  9997
2 65139  51.9020 285.5979 0000357 104.7474 255.3528 14.79938612 52580
KUIPER-00102            
1 65140U 25171J   26201.04128864  .00001272  00000+0  19586-3 0  9999
2 65140  51.8988 287.7970 0000331  75.5508 284.5491 14.79935332 52550
KUIPER-00103            
1 65141U 25171K   26201.25875943  .00001588  00000+0  23719-3 0  9993
2 65141  51.8996 304.3335 0000335 124.7564 235.3430 14.79942818 52345
KUIPER-00104            
1 65142U 25171L   26201.27225784  .00001488  00000+0  22415-3 0  9999
2 65142  51.9028 291.7766 0000327 115.5563 244.5434 14.79934139 52521
KUIPER-00105            
1 65143U 25171M   26201.29790852  .00001665  00000+0  24720-3 0  9993
2 65143  51.9016 299.2633 0000311 122.9712 237.1281 14.79951564 52424
KUIPER-00106            
1 65144U 25171N   26201.14360522  .00001314  00000+0  20132-3 0  9999
2 65144  51.9021 278.7090 0000303 113.4624 246.6371 14.79930990 52704
KUIPER-00107            
1 65145U 25171P   26201.24928600  .00001491  00000+0  22457-3 0  9996
2 65145  51.9013 281.9199 0000326 109.9961 250.1037 14.79932256 52662
KUIPER-00108            
1 65146U 25171Q   26200.52674340  .00001341  00000+0  20483-3 0  9997
2 65146  51.9033 297.6527 0000364 102.3969 257.7034 14.79930202 52389
KUIPER-00109            
1 65147U 25171R   26201.24116265  .00001483  00000+0  22346-3 0  9992
2 65147  51.9029 289.4360 0000301 119.6148 240.4845 14.79948285 52558
KUIPER-00110            
1 65148U 25171S   26200.99136625  .00001453  00000+0  21952-3 0  9995
2 65148  51.9009 303.0977 0000398 115.8489 244.2514 14.79931415 52334
KUIPER-00111            
1 65149U 25171T   26201.28979900  .00001620  00000+0  24141-3 0  9999
2 65149  51.8991 306.6538 0000391 129.5835 230.5162 14.79951691 52319
KUIPER-00112            
1 65150U 25171U   26201.27496494  .00001499  00000+0  22556-3 0  9994
2 65150  51.9025 289.3347 0000342 112.4151 247.6847 14.79933236 52553
