{"fetched_at":"2026-07-20T18:28:50.031Z","source":"https://celestrak.org/NORAD/elements/gp.php?GROUP=kuiper&FORMAT=JSON","constellation":"kuiper","records":[{"OBJECT_NAME":"KUIPER-00096","OBJECT_ID":"2025-171D","EPOCH":"2026-07-20T05:43:25.819392","CLASSIFICATION_TYPE":"U","MEAN_MOTION":14.79935002,"ECCENTRICITY":0.0000253,"INCLINATION":51.8999,"RA_OF_ASC_NODE":291.942,"ARG_OF_PERICENTER":115.5347,"MEAN_ANOMALY":244.5642,"EPHEMERIS_TYPE":0,"NORAD_CAT_ID":65135,"ELEMENT_SET_NO":999,"REV_AT_EPOCH":5252,"BSTAR":0.00024767904,"MEAN_MOTION_DOT":0.00001668,"MEAN_MOTION_DDOT":0},{"OBJECT_NAME":"KUIPER-00097","OBJECT_ID":"2025-171E","EPOCH":"2026-07-20T07:16:48.842112","CLASSIFICATION_TYPE":"U","MEAN_MOTION":14.79937467,"ECCENTRICITY":0.00003086,"INCLINATION":51.9025,"RA_OF_ASC_NODE":294.3124,"ARG_OF_PERICENTER":108.8132,"MEAN_ANOMALY":251.2864,"EPHEMERIS_TYPE":0,"NORAD_CAT_ID":65136,"ELEMENT_SET_NO":999,"REV_AT_EPOCH":5248,"BSTAR":0.00023694548,"MEAN_MOTION_DOT":0.00001586,"MEAN_MOTION_DDOT":0},{"OBJECT_NAME":"KUIPER-00098","OBJECT_ID":"2025-171F","EPOCH":"2026-07-20T05:35:38.906880","CLASSIFICATION_TYPE":"U","MEAN_MOTION":14.79942937,"ECCENTRICITY":0.00003492,"INCLINATION":51.9017,"RA_OF_ASC_NODE":296.988,"ARG_OF_PERICENTER":107.9015,"MEAN_ANOMALY":252.1986,"EPHEMERIS_TYPE":0,"NORAD_CAT_ID":65137,"ELEMENT_SET_NO":999,"REV_AT_EPOCH":5179,"BSTAR":0.00024113212,"MEAN_MOTION_DOT":0.00001618,"MEAN_MOTION_DDOT":0},{"OBJECT_NAME":"KUIPER-00099","OBJECT_ID":"2025-171G","EPOCH":"2026-07-19T22:33:33.884064","CLASSIFICATION_TYPE":"U","MEAN_MOTION":14.79919158,"ECCENTRICITY":0.00007876,"INCLINATION":51.9032,"RA_OF_ASC_NODE":288.2898,"ARG_OF_PERICENTER":98.6441,"MEAN_ANOMALY":261.461,"EPHEMERIS_TYPE":0,"NORAD_CAT_ID":65138,"ELEMENT_SET_NO":999,"REV_AT_EPOCH":5254,"BSTAR":0.000078494847,"MEAN_MOTION_DOT":0.00000377,"MEAN_MOTION_DDOT":0},{"OBJECT_NAME":"KUIPER-00100","OBJECT_ID":"2025-171H","EPOCH":"2026-07-19T23:26:05.741376","CLASSIFICATION_TYPE":"U","MEAN_MOTION":14.79938612,"ECCENTRICITY":0.00003578,"INCLINATION":51.902,"RA_OF_ASC_NODE":285.5979,"ARG_OF_PERICENTER":104.7474,"MEAN_ANOMALY":255.3528,"EPHEMERIS_TYPE":0,"NORAD_CAT_ID":65139,"ELEMENT_SET_NO":999,"REV_AT_EPOCH":5258,"BSTAR":0.00019377437,"MEAN_MOTION_DOT":0.00001257,"MEAN_MOTION_DDOT":0},{"OBJECT_NAME":"KUIPER-00102","OBJECT_ID":"2025-171J","EPOCH":"2026-07-20T00:59:27.338496","CLASSIFICATION_TYPE":"U","MEAN_MOTION":14.79935332,"ECCENTRICITY":0.00003316,"INCLINATION":51.8988,"RA_OF_ASC_NODE":287.797,"ARG_OF_PERICENTER":75.5508,"MEAN_ANOMALY":284.5491,"EPHEMERIS_TYPE":0,"NORAD_CAT_ID":65140,"ELEMENT_SET_NO":999,"REV_AT_EPOCH":5255,"BSTAR":0.00019586041,"MEAN_MOTION_DOT":0.00001272,"MEAN_MOTION_DDOT":0},{"OBJECT_NAME":"KUIPER-00103","OBJECT_ID":"2025-171K","EPOCH":"2026-07-20T06:12:36.814752","CLASSIFICATION_TYPE":"U","MEAN_MOTION":14.79942818,"ECCENTRICITY":0.00003357,"INCLINATION":51.8996,"RA_OF_ASC_NODE":304.3335,"ARG_OF_PERICENTER":124.7564,"MEAN_ANOMALY":235.343,"EPHEMERIS_TYPE":0,"NORAD_CAT_ID":65141,"ELEMENT_SET_NO":999,"REV_AT_EPOCH":5234,"BSTAR":0.00023719068,"MEAN_MOTION_DOT":0.00001588,"MEAN_MOTION_DDOT":0},{"OBJECT_NAME":"KUIPER-00104","OBJECT_ID":"2025-171L","EPOCH":"2026-07-20T06:32:03.077376","CLASSIFICATION_TYPE":"U","MEAN_MOTION":14.79934139,"ECCENTRICITY":0.00003278,"INCLINATION":51.9028,"RA_OF_ASC_NODE":291.7766,"ARG_OF_PERICENTER":115.5563,"MEAN_ANOMALY":244.5434,"EPHEMERIS_TYPE":0,"NORAD_CAT_ID":65142,"ELEMENT_SET_NO":999,"REV_AT_EPOCH":5252,"BSTAR":0.00022414646,"MEAN_MOTION_DOT":0.00001488,"MEAN_MOTION_DDOT":0},{"OBJECT_NAME":"KUIPER-00105","OBJECT_ID":"2025-171M","EPOCH":"2026-07-20T07:08:59.296128","CLASSIFICATION_TYPE":"U","MEAN_MOTION":14.79951564,"ECCENTRICITY":0.00003113,"INCLINATION":51.9016,"RA_OF_ASC_NODE":299.2633,"ARG_OF_PERICENTER":122.9712,"MEAN_ANOMALY":237.1281,"EPHEMERIS_TYPE":0,"NORAD_CAT_ID":65143,"ELEMENT_SET_NO":999,"REV_AT_EPOCH":5242,"BSTAR":0.00024720434,"MEAN_MOTION_DOT":0.00001665,"MEAN_MOTION_DDOT":0},{"OBJECT_NAME":"KUIPER-00106","OBJECT_ID":"2025-171N","EPOCH":"2026-07-20T03:26:47.491008","CLASSIFICATION_TYPE":"U","MEAN_MOTION":14.7993099,"ECCENTRICITY":0.0000303,"INCLINATION":51.9021,"RA_OF_ASC_NODE":278.709,"ARG_OF_PERICENTER":113.4624,"MEAN_ANOMALY":246.6371,"EPHEMERIS_TYPE":0,"NORAD_CAT_ID":65144,"ELEMENT_SET_NO":999,"REV_AT_EPOCH":5270,"BSTAR":0.00020131834,"MEAN_MOTION_DOT":0.00001314,"MEAN_MOTION_DDOT":0},{"OBJECT_NAME":"KUIPER-00107","OBJECT_ID":"2025-171P","EPOCH":"2026-07-20T05:58:58.310400","CLASSIFICATION_TYPE":"U","MEAN_MOTION":14.79932256,"ECCENTRICITY":0.00003261,"INCLINATION":51.9013,"RA_OF_ASC_NODE":281.9199,"ARG_OF_PERICENTER":109.9961,"MEAN_ANOMALY":250.1037,"EPHEMERIS_TYPE":0,"NORAD_CAT_ID":65145,"ELEMENT_SET_NO":999,"REV_AT_EPOCH":5266,"BSTAR":0.00022456517,"MEAN_MOTION_DOT":0.00001491,"MEAN_MOTION_DDOT":0},{"OBJECT_NAME":"KUIPER-00108","OBJECT_ID":"2025-171Q","EPOCH":"2026-07-19T12:38:30.629760","CLASSIFICATION_TYPE":"U","MEAN_MOTION":14.79930202,"ECCENTRICITY":0.00003648,"INCLINATION":51.9033,"RA_OF_ASC_NODE":297.6527,"ARG_OF_PERICENTER":102.3969,"MEAN_ANOMALY":257.7034,"EPHEMERIS_TYPE":0,"NORAD_CAT_ID":65146,"ELEMENT_SET_NO":999,"REV_AT_EPOCH":5238,"BSTAR":0.0002048291,"MEAN_MOTION_DOT":0.00001341,"MEAN_MOTION_DDOT":0},{"OBJECT_NAME":"KUIPER-00109","OBJECT_ID":"2025-171R","EPOCH":"2026-07-20T05:47:16.452960","CLASSIFICATION_TYPE":"U","MEAN_MOTION":14.79948285,"ECCENTRICITY":0.00003014,"INCLINATION":51.9029,"RA_OF_ASC_NODE":289.436,"ARG_OF_PERICENTER":119.6148,"MEAN_ANOMALY":240.4845,"EPHEMERIS_TYPE":0,"NORAD_CAT_ID":65147,"ELEMENT_SET_NO":999,"REV_AT_EPOCH":5255,"BSTAR":0.00022345973,"MEAN_MOTION_DOT":0.00001483,"MEAN_MOTION_DDOT":0},{"OBJECT_NAME":"KUIPER-00110","OBJECT_ID":"2025-171S","EPOCH":"2026-07-19T23:47:34.044000","CLASSIFICATION_TYPE":"U","MEAN_MOTION":14.79931415,"ECCENTRICITY":0.00003982,"INCLINATION":51.9009,"RA_OF_ASC_NODE":303.0977,"ARG_OF_PERICENTER":115.8489,"MEAN_ANOMALY":244.2514,"EPHEMERIS_TYPE":0,"NORAD_CAT_ID":65148,"ELEMENT_SET_NO":999,"REV_AT_EPOCH":5233,"BSTAR":0.00021951519,"MEAN_MOTION_DOT":0.00001453,"MEAN_MOTION_DDOT":0},{"OBJECT_NAME":"KUIPER-00111","OBJECT_ID":"2025-171T","EPOCH":"2026-07-20T06:57:18.633600","CLASSIFICATION_TYPE":"U","MEAN_MOTION":14.79951691,"ECCENTRICITY":0.00003918,"INCLINATION":51.8991,"RA_OF_ASC_NODE":306.6538,"ARG_OF_PERICENTER":129.5835,"MEAN_ANOMALY":230.5162,"EPHEMERIS_TYPE":0,"NORAD_CAT_ID":65149,"ELEMENT_SET_NO":999,"REV_AT_EPOCH":5231,"BSTAR":0.00024140629,"MEAN_MOTION_DOT":0.0000162,"MEAN_MOTION_DDOT":0},{"OBJECT_NAME":"KUIPER-00112","OBJECT_ID":"2025-171U","EPOCH":"2026-07-20T06:35:56.970816","CLASSIFICATION_TYPE":"U","MEAN_MOTION":14.79933236,"ECCENTRICITY":0.00003428,"INCLINATION":51.9025,"RA_OF_ASC_NODE":289.3347,"ARG_OF_PERICENTER":112.4151,"MEAN_ANOMALY":247.6847,"EPHEMERIS_TYPE":0,"NORAD_CAT_ID":65150,"ELEMENT_SET_NO":999,"REV_AT_EPOCH":5255,"BSTAR":0.00022556016,"MEAN_MOTION_DOT":0.00001499,"MEAN_MOTION_DDOT":0}]}
